H1 CPF 01  gfz 2022 02 20 13  5512 terrasarx 
H2 0702601  6201 31698    2022 02 20 12 59 42 2022 02 25 00 00 42   120 1 1  0 0 0
H9
10 0 59632   6462.000000  0    1978787.003   2128120.109  -6252756.808
10 0 59632   6582.000000  0    1644153.712   1330846.468  -6562664.242
10 0 59632   6702.000000  0    1266937.962    516747.337  -6758070.400
10 0 59632   6822.000000  0     853519.232   -299380.641  -6835613.766
10 0 59632   6942.000000  0     411152.468  -1102835.968  -6793961.835
10 0 59632   7062.000000  0     -52156.641  -1879270.316  -6633829.789
10 0 59632   7182.000000  0    -527792.112  -2614937.155  -6357970.140
10 0 59632   7302.000000  0   -1006683.983  -3296931.378  -5971131.986
10 0 59632   7422.000000  0   -1479476.534  -3913413.689  -5479986.892
10 0 59632   7542.000000  0   -1936706.582  -4453817.008  -4893025.417
10 0 59632   7662.000000  0   -2368990.032  -4909033.238  -4220422.320
10 0 59632   7782.000000  0   -2767213.006  -5271574.604  -3473870.099
10 0 59632   7902.000000  0   -3122722.812  -5535705.758  -2666383.785
10 0 59632   8022.000000  0   -3427515.132  -5697544.463  -1812079.523
10 0 59632   8142.000000  0   -3674413.476  -5755127.703   -925929.239
10 0 59632   8262.000000  0   -3857235.281  -5708440.083    -23495.042
10 0 59632   8382.000000  0   -3970939.814  -5559402.897    879350.328
10 0 59632   8502.000000  0   -4011754.525  -5311824.081   1766711.168
10 0 59632   8622.000000  0   -3977275.856  -4971309.063   2622958.295
10 0 59632   8742.000000  0   -3866541.796  -4545135.431   3433012.439
10 0 59632   8862.000000  0   -3680075.075  -4042095.639   4182616.387
10 0 59632   8982.000000  0   -3419895.395  -3472310.689   4858590.441
10 0 59632   9102.000000  0   -3089500.938  -2847019.836   5449064.594
10 0 59632   9222.000000  0   -2693820.250  -2178353.286   5943684.386
10 0 59632   9342.000000  0   -2239135.726  -1479092.974   6333788.389
10 0 59632   9462.000000  0   -1732980.560   -762424.629   6612556.101
10 0 59632   9582.000000  0   -1184009.210    -41685.520   6775120.549
10 0 59632   9702.000000  0    -601848.056    669882.871   6818645.588
10 0 59632   9822.000000  0       3072.930   1359376.983   6742373.046
10 0 59632   9942.000000  0     619706.766   2014464.905   6547635.464
10 0 59632  10062.000000  0    1236590.876   2623606.972   6237833.779
10 0 59632  10182.000000  0    1842059.189   3176258.914   5818381.380
10 0 59632  10302.000000  0    2424462.128   3663056.837   5296615.877
10 0 59632  10422.000000  0    2972392.250   4075980.682   4681677.275
10 0 59632  10542.000000  0    3474910.236   4408491.001   3984352.016
10 0 59632  10662.000000  0    3921764.831   4655637.208   3216888.859
10 0 59632  10782.000000  0    4303608.053   4814138.008   2392786.419
10 0 59632  10902.000000  0    4612193.721   4882425.467   1526550.781
10 0 59632  11022.000000  0    4840555.436   4860655.773    633437.275
10 0 59632  11142.000000  0    4983164.472   4750685.640   -270826.210
10 0 59632  11262.000000  0    5036055.837   4556011.559  -1170326.241
10 0 59632  11382.000000  0    4996923.294   4281676.122  -2049251.600
10 0 59632  11502.000000  0    4865182.038   3934144.546  -2892178.107
10 0 59632  11622.000000  0    4641996.081   3521153.907  -3684344.353
10 0 59632  11742.000000  0    4330269.730   3051539.955  -4411912.152
10 0 59632  11862.000000  0    3934604.836   2535045.410  -5062206.378
10 0 59632  11982.000000  0    3461226.169   1982114.644  -5623930.025
10 0 59632  12102.000000  0    2917876.132   1403680.633  -6087352.012
10 0 59632  12222.000000  0    2313681.291    810948.563  -6444464.863
10 0 59632  12342.000000  0    1658995.200    215180.691  -6689110.782
10 0 59632  12462.000000  0     965221.480   -372513.512  -6817077.740
10 0 59632  12582.000000  0     244616.327   -941380.609  -6826165.364
10 0 59632  12702.000000  0    -489924.211  -1481214.941  -6716216.643
10 0 59632  12822.000000  0   -1225088.648  -1982536.266  -6489120.555
10 0 59632  12942.000000  0   -1947385.891  -2436753.188  -6148784.010
10 0 59632  13062.000000  0   -2643387.301  -2836308.763  -5701071.180
10 0 59632  13182.000000  0   -3299972.071  -3174806.411  -5153713.430
10 0 59632  13302.000000  0   -3904574.661  -3447115.785  -4516188.074
10 0 59632  13422.000000  0   -4445427.658  -3649454.310  -3799564.527
10 0 59632  13542.000000  0   -4911795.298  -3779443.020  -3016321.632
10 0 59632  13662.000000  0   -5294193.342  -3836135.599  -2180136.820
10 0 59632  13782.000000  0   -5584589.175  -3820018.781  -1305649.716
10 0 59632  13902.000000  0   -5776576.880  -3732983.593   -408204.950
10 0 59632  14022.000000  0   -5865522.822  -3578267.898    496421.377
10 0 59632  14142.000000  0   -5848677.826  -3360371.569   1392306.486
10 0 59632  14262.000000  0   -5725250.655  -3084944.862   2263671.470
10 0 59632  14382.000000  0   -5496440.851  -2758652.809   3095168.005
10 0 59632  14502.000000  0   -5165432.149  -2389021.331   3872155.996
10 0 59632  14622.000000  0   -4737345.149  -1984266.714   4580967.751
10 0 59632  14742.000000  0   -4219150.720  -1553113.617   5209149.778
10 0 59632  14862.000000  0   -3619549.237  -1104608.202   5745679.546
10 0 59632  14982.000000  0   -2948817.793   -647928.921   6181156.537
10 0 59632  15102.000000  0   -2218626.434   -192198.105   6507962.940
10 0 59632  15222.000000  0   -1441828.416    253699.856   6720389.702
10 0 59632  15342.000000  0    -632231.055    681289.584   6814729.646
10 0 59632  15462.000000  0     195650.203   1082664.530   6789338.031
10 0 59632  15582.000000  0    1026851.278   1450632.567   6644659.381
10 0 59632  15702.000000  0    1846229.148   1778845.161   6383220.104
10 0 59632  15822.000000  0    2638736.753   2061906.938   6009586.744
10 0 59632  15942.000000  0    3389699.761   2295465.033   5530292.019
10 0 59632  16062.000000  0    4085091.485   2476276.843   4953726.453
10 0 59632  16182.000000  0    4711798.451   2602255.162   4289997.337
10 0 59632  16302.000000  0    5257874.461   2672490.160   3550758.043
10 0 59632  16422.000000  0    5712779.051   2687245.971   2749004.332
10 0 59632  16542.000000  0    6067586.830   2647931.567   1898844.692
10 0 59632  16662.000000  0    6315171.180   2557049.077   1015249.681
10 0 59632  16782.000000  0    6450353.376   2418117.886    113781.299
10 0 59632  16902.000000  0    6470012.075   2235577.145   -789690.384
10 0 59632  17022.000000  0    6373149.653   2014668.746  -1679275.306
10 0 59632  17142.000000  0    6160919.027   1761305.755  -2539348.951
10 0 59632  17262.000000  0    5836607.234   1481927.851  -3354834.457
10 0 59632  17382.000000  0    5405575.189   1183347.289  -4111470.499
10 0 59632  17502.000000  0    4875156.684    872590.537  -4796060.755
10 0 59632  17622.000000  0    4254520.738    556740.098  -5396698.897
10 0 59632  17742.000000  0    3554502.744    242779.641  -5902967.514
10 0 59632  17862.000000  0    2787406.990    -62554.007  -6306109.152
10 0 59632  17982.000000  0    1966784.460   -352909.606  -6599166.426
10 0 59632  18102.000000  0    1107192.918   -622448.455  -6777090.669
10 0 59632  18222.000000  0     223940.736   -865957.566  -6836821.078
10 0 59632  18342.000000  0    -667181.741  -1078946.564  -6777330.378
10 0 59632  18462.000000  0   -1550177.129  -1257727.918  -6599640.493
10 0 59632  18582.000000  0   -2409122.006  -1399479.469  -6306807.350
10 0 59632  18702.000000  0   -3228447.624  -1502288.093  -5903872.724
10 0 59632  18822.000000  0   -3993216.897  -1565174.542  -5397787.612
10 0 59632  18942.000000  0   -4689397.644  -1588099.082  -4797304.398
10 0 59632  19062.000000  0   -5304123.709  -1571946.924  -4112836.392
10 0 59632  19182.000000  0   -5825939.853  -1518493.966  -3356287.990
10 0 59632  19302.000000  0   -6245025.880  -1430353.268  -2540855.367
10 0 59632  19422.000000  0   -6553393.139  -1310902.566  -1680800.326
10 0 59632  19542.000000  0   -6745048.743  -1164194.601   -791201.471
10 0 59632  19662.000000  0   -6816123.112   -994851.944    112313.766
10 0 59632  19782.000000  0   -6764955.607   -807947.851   1013850.320
10 0 59632  19902.000000  0   -6592136.176   -608877.920   1897533.409
10 0 59632  20022.000000  0   -6300501.486   -403225.063   2747797.251
10 0 59632  20142.000000  0   -5895085.758   -196620.954   3549667.912
10 0 59632  20262.000000  0   -5383026.777      5392.407   4289034.019
10 0 59632  20382.000000  0   -4773430.185    197496.499   4952898.579
10 0 59632  20502.000000  0   -4077197.229    374723.168   5529606.935
10 0 59632  20622.000000  0   -3306820.788    532571.700   6009048.919
10 0 59632  20742.000000  0   -2476152.291    667112.574   6382831.889
10 0 59632  20862.000000  0   -1600146.212    775076.234   6644422.118
10 0 59632  20982.000000  0    -694585.901    853926.230   6789252.951
10 0 59632  21102.000000  0     224202.098    901914.269   6814798.328
10 0 59632  21222.000000  0    1139641.542    918116.629   6720613.617
10 0 59632  21342.000000  0    2035204.239    902451.985   6508343.003
10 0 59632  21462.000000  0    2894707.397    855679.714   6181692.836
10 0 59632  21582.000000  0    3702606.954    779378.740   5746371.744
10 0 59632  21702.000000  0    4444281.566    675907.576   5209995.806
10 0 59632  21822.000000  0    5106301.451    548345.591   4581961.872
10 0 59632  21942.000000  0    5676679.851    400416.548   3873289.508
10 0 59632  22062.000000  0    6145100.428    236397.283   3096430.588
10 0 59632  22182.000000  0    6503113.866     61012.704   2265050.094
10 0 59632  22302.000000  0    6744299.091   -120682.391   1393784.019
10 0 59632  22422.000000  0    6864387.193   -303429.587    497976.811
10 0 59632  22542.000000  0    6861342.182   -481898.300   -406596.365
10 0 59632  22662.000000  0    6735396.633   -650820.302  -1304017.063
10 0 59632  22782.000000  0    6489040.920   -805122.963  -2178512.299
10 0 59632  22902.000000  0    6126967.068   -940057.714  -3014739.155
99
